[{"OBJECT_NAME":"CZ-2D R/B","OBJECT_ID":"2005-024B","EPOCH":"2026-03-04T18:28:36.178752","MEAN_MOTION":15.59635251,"ECCENTRICITY":0.0006504,"INCLINATION":97.3595,"RA_OF_ASC_NODE":78.7365,"ARG_OF_PERICENTER":59.3391,"MEAN_ANOMALY":300.8506,"EPHEMERIS_TYPE":0,"CLASSIFICATION_TYPE":"U","NORAD_CAT_ID":28738,"ELEMENT_SET_NO":999,"REV_AT_EPOCH":13901,"BSTAR":0.00068849,"MEAN_MOTION_DOT":0.00055067,"MEAN_MOTION_DDOT":0},{"OBJECT_NAME":"ALOS (DAICHI)","OBJECT_ID":"2006-002A","EPOCH":"2026-03-04T19:20:04.214112","MEAN_MOTION":14.69791992,"ECCENTRICITY":0.0001103,"INCLINATION":98.121,"RA_OF_ASC_NODE":19.7858,"ARG_OF_PERICENTER":51.3179,"MEAN_ANOMALY":308.8125,"EPHEMERIS_TYPE":0,"CLASSIFICATION_TYPE":"U","NORAD_CAT_ID":28931,"ELEMENT_SET_NO":999,"REV_AT_EPOCH":7276,"BSTAR":0.00035532,"MEAN_MOTION_DOT":2.071e-5,"MEAN_MOTION_DDOT":0},{"OBJECT_NAME":"H-2A R/B","OBJECT_ID":"2006-002B","EPOCH":"2026-03-04T09:30:17.594208","MEAN_MOTION":15.1628586,"ECCENTRICITY":0.0051848,"INCLINATION":98.2401,"RA_OF_ASC_NODE":209.9655,"ARG_OF_PERICENTER":259.2061,"MEAN_ANOMALY":100.3331,"EPHEMERIS_TYPE":0,"CLASSIFICATION_TYPE":"U","NORAD_CAT_ID":28932,"ELEMENT_SET_NO":999,"REV_AT_EPOCH":9363,"BSTAR":0.00077274126,"MEAN_MOTION_DOT":0.00015424,"MEAN_MOTION_DDOT":0},{"OBJECT_NAME":"RESURS-DK 1","OBJECT_ID":"2006-021A","EPOCH":"2026-03-04T12:14:22.081056","MEAN_MOTION":15.12702247,"ECCENTRICITY":0.00024124,"INCLINATION":69.9304,"RA_OF_ASC_NODE":250.4226,"ARG_OF_PERICENTER":165.2487,"MEAN_ANOMALY":194.875,"EPHEMERIS_TYPE":0,"CLASSIFICATION_TYPE":"U","NORAD_CAT_ID":29228,"ELEMENT_SET_NO":999,"REV_AT_EPOCH":8674,"BSTAR":0.00022310866,"MEAN_MOTION_DOT":3.809e-5,"MEAN_MOTION_DDOT":0},{"OBJECT_NAME":"CZ-4B R/B","OBJECT_ID":"2006-046C","EPOCH":"2026-03-04T12:42:51.124896","MEAN_MOTION":15.1684144,"ECCENTRICITY":0.0031698,"INCLINATION":97.56,"RA_OF_ASC_NODE":108.4521,"ARG_OF_PERICENTER":286.0603,"MEAN_ANOMALY":73.714,"EPHEMERIS_TYPE":0,"CLASSIFICATION_TYPE":"U","NORAD_CAT_ID":29507,"ELEMENT_SET_NO":999,"REV_AT_EPOCH":5926,"BSTAR":0.00036069,"MEAN_MOTION_DOT":7.117e-5,"MEAN_MOTION_DDOT":0},{"OBJECT_NAME":"CZ-2C R/B","OBJECT_ID":"2007-010B","EPOCH":"2026-03-04T17:22:27.341184","MEAN_MOTION":14.2024421,"ECCENTRICITY":0.005802,"INCLINATION":98.3977,"RA_OF_ASC_NODE":177.2518,"ARG_OF_PERICENTER":309.3213,"MEAN_ANOMALY":50.2829,"EPHEMERIS_TYPE":0,"CLASSIFICATION_TYPE":"U","NORAD_CAT_ID":31114,"ELEMENT_SET_NO":999,"REV_AT_EPOCH":97901,"BSTAR":0.00010157,"MEAN_MOTION_DOT":1.79e-6,"MEAN_MOTION_DDOT":0},{"OBJECT_NAME":"COSMO-SKYMED 1","OBJECT_ID":"2007-023A","EPOCH":"2026-03-04T20:24:26.687232","MEAN_MOTION":14.96489106,"ECCENTRICITY":8.2e-5,"INCLINATION":97.886,"RA_OF_ASC_NODE":254.8441,"ARG_OF_PERICENTER":94.3945,"MEAN_ANOMALY":265.737,"EPHEMERIS_TYPE":0,"CLASSIFICATION_TYPE":"U","NORAD_CAT_ID":31598,"ELEMENT_SET_NO":999,"REV_AT_EPOCH":1418,"BSTAR":0.00043144,"MEAN_MOTION_DOT":4.841e-5,"MEAN_MOTION_DDOT":0},{"OBJECT_NAME":"COSMOS 2428","OBJECT_ID":"2007-029A","EPOCH":"2026-03-04T12:11:54.669696","MEAN_MOTION":14.12944763,"ECCENTRICITY":0.00088436,"INCLINATION":70.9424,"RA_OF_ASC_NODE":214.2185,"ARG_OF_PERICENTER":282.5735,"MEAN_ANOMALY":77.4396,"EPHEMERIS_TYPE":0,"CLASSIFICATION_TYPE":"U","NORAD_CAT_ID":31792,"ELEMENT_SET_NO":999,"REV_AT_EPOCH":96336,"BSTAR":6.1425717e-5,"MEAN_MOTION_DOT":6.7e-7,"MEAN_MOTION_DDOT":0},{"OBJECT_NAME":"SL-16 R/B","OBJECT_ID":"2007-029B","EPOCH":"2026-03-04T18:37:10.920576","MEAN_MOTION":14.14833705,"ECCENTRICITY":0.0002384,"INCLINATION":70.9756,"RA_OF_ASC_NODE":182.713,"ARG_OF_PERICENTER":277.8179,"MEAN_ANOMALY":244.0771,"EPHEMERIS_TYPE":0,"CLASSIFICATION_TYPE":"U","NORAD_CAT_ID":31793,"ELEMENT_SET_NO":999,"REV_AT_EPOCH":96467,"BSTAR":-3.6368e-5,"MEAN_MOTION_DOT":-1.18e-6,"MEAN_MOTION_DDOT":0},{"OBJECT_NAME":"KORONAS-FOTON","OBJECT_ID":"2009-003A","EPOCH":"2026-03-04T13:50:58.979328","MEAN_MOTION":15.43184144,"ECCENTRICITY":0.0010884,"INCLINATION":82.428,"RA_OF_ASC_NODE":281.194,"ARG_OF_PERICENTER":166.9286,"MEAN_ANOMALY":193.2246,"EPHEMERIS_TYPE":0,"CLASSIFICATION_TYPE":"U","NORAD_CAT_ID":33504,"ELEMENT_SET_NO":999,"REV_AT_EPOCH":94495,"BSTAR":0.00037964,"MEAN_MOTION_DOT":0.00016914,"MEAN_MOTION_DDOT":0},{"OBJECT_NAME":"CZ-2C R/B","OBJECT_ID":"2011-030B","EPOCH":"2026-03-04T19:25:22.346688","MEAN_MOTION":14.81199589,"ECCENTRICITY":0.0052874,"INCLINATION":97.8537,"RA_OF_ASC_NODE":21.1702,"ARG_OF_PERICENTER":7.9772,"MEAN_ANOMALY":19.4096,"EPHEMERIS_TYPE":0,"CLASSIFICATION_TYPE":"U","NORAD_CAT_ID":37731,"ELEMENT_SET_NO":999,"REV_AT_EPOCH":78937,"BSTAR":0.00033387,"MEAN_MOTION_DOT":2.607e-5,"MEAN_MOTION_DDOT":0},{"OBJECT_NAME":"H-2A R/B","OBJECT_ID":"2012-025E","EPOCH":"2026-03-04T20:14:09.747168","MEAN_MOTION":14.95116047,"ECCENTRICITY":0.0043735,"INCLINATION":98.4721,"RA_OF_ASC_NODE":30.501,"ARG_OF_PERICENTER":330.3999,"MEAN_ANOMALY":29.4744,"EPHEMERIS_TYPE":0,"CLASSIFICATION_TYPE":"U","NORAD_CAT_ID":38341,"ELEMENT_SET_NO":999,"REV_AT_EPOCH":74749,"BSTAR":0.00052701,"MEAN_MOTION_DOT":5.822e-5,"MEAN_MOTION_DDOT":0},{"OBJECT_NAME":"SHIJIAN-16 (SJ-16)","OBJECT_ID":"2013-057A","EPOCH":"2026-03-04T20:51:41.376960","MEAN_MOTION":14.92317441,"ECCENTRICITY":0.0015702,"INCLINATION":74.9732,"RA_OF_ASC_NODE":194.2123,"ARG_OF_PERICENTER":125.2476,"MEAN_ANOMALY":235.0184,"EPHEMERIS_TYPE":0,"CLASSIFICATION_TYPE":"U","NORAD_CAT_ID":39358,"ELEMENT_SET_NO":999,"REV_AT_EPOCH":67078,"BSTAR":0.00024736,"MEAN_MOTION_DOT":2.505e-5,"MEAN_MOTION_DDOT":0},{"OBJECT_NAME":"SL-4 R/B","OBJECT_ID":"2014-021B","EPOCH":"2026-03-04T05:45:04.526208","MEAN_MOTION":15.38969611,"ECCENTRICITY":0.00979685,"INCLINATION":51.6089,"RA_OF_ASC_NODE":3.8618,"ARG_OF_PERICENTER":83.111,"MEAN_ANOMALY":278.1008,"EPHEMERIS_TYPE":0,"CLASSIFICATION_TYPE":"U","NORAD_CAT_ID":39679,"ELEMENT_SET_NO":999,"REV_AT_EPOCH":65543,"BSTAR":0.00052582601,"MEAN_MOTION_DOT":0.00023997,"MEAN_MOTION_DDOT":0},{"OBJECT_NAME":"ALOS-2","OBJECT_ID":"2014-029A","EPOCH":"2026-03-04T20:23:01.647168","MEAN_MOTION":14.79480659,"ECCENTRICITY":0.0001488,"INCLINATION":97.9201,"RA_OF_ASC_NODE":162.5171,"ARG_OF_PERICENTER":95.9487,"MEAN_ANOMALY":264.1894,"EPHEMERIS_TYPE":0,"CLASSIFICATION_TYPE":"U","NORAD_CAT_ID":39766,"ELEMENT_SET_NO":999,"REV_AT_EPOCH":63615,"BSTAR":0.00029794,"MEAN_MOTION_DOT":2.175e-5,"MEAN_MOTION_DDOT":0},{"OBJECT_NAME":"YAOGAN-29","OBJECT_ID":"2015-069A","EPOCH":"2026-03-04T20:51:21.900672","MEAN_MOTION":14.82987439,"ECCENTRICITY":0.0002196,"INCLINATION":98.0146,"RA_OF_ASC_NODE":92.285,"ARG_OF_PERICENTER":44.1428,"MEAN_ANOMALY":315.996,"EPHEMERIS_TYPE":0,"CLASSIFICATION_TYPE":"U","NORAD_CAT_ID":41038,"ELEMENT_SET_NO":999,"REV_AT_EPOCH":55516,"BSTAR":1.4731e-5,"MEAN_MOTION_DOT":6.5e-7,"MEAN_MOTION_DDOT":0},{"OBJECT_NAME":"ASTRO-H (HITOMI)","OBJECT_ID":"2016-012A","EPOCH":"2026-03-04T06:42:45.974592","MEAN_MOTION":15.09959716,"ECCENTRICITY":0.00100127,"INCLINATION":31.0006,"RA_OF_ASC_NODE":31.4569,"ARG_OF_PERICENTER":277.2839,"MEAN_ANOMALY":82.6661,"EPHEMERIS_TYPE":0,"CLASSIFICATION_TYPE":"U","NORAD_CAT_ID":41337,"ELEMENT_SET_NO":999,"REV_AT_EPOCH":55141,"BSTAR":0.00031307596,"MEAN_MOTION_DOT":5.308e-5,"MEAN_MOTION_DDOT":0}]
