CZ-2D R/B               
1 28738U 05024B   26063.76986318  .00055067  00000+0  68849-3 0  9994
2 28738  97.3595  78.7365 0006504  59.3391 300.8506 15.59635251139017
ALOS (DAICHI)           
1 28931U 06002A   26063.80560433  .00002071  00000+0  35532-3 0  9997
2 28931  98.1210  19.7858 0001103  51.3179 308.8125 14.69791992 72761
H-2A R/B                
1 28932U 06002B   26063.39603697  .00015424  00000+0  77274-3 0  9997
2 28932  98.2401 209.9655 0051848 259.2061 100.3331 15.16285860 93631
RESURS-DK 1             
1 29228U 06021A   26063.50997779  .00003809  00000+0  22311-3 0  9993
2 29228  69.9304 250.4226 0002412 165.2487 194.8750 15.12702247 86749
CZ-4B R/B               
1 29507U 06046C   26063.52975839  .00007117  00000+0  36069-3 0  9996
2 29507  97.5600 108.4521 0031698 286.0603  73.7140 15.16841440 59263
CZ-2C R/B               
1 31114U 07010B   26063.72392756  .00000179  00000+0  10157-3 0  9999
2 31114  98.3977 177.2518 0058020 309.3213  50.2829 14.20244210979014
COSMO-SKYMED 1          
1 31598U 07023A   26063.85030888  .00004841  00000+0  43144-3 0  9990
2 31598  97.8860 254.8441 0000820  94.3945 265.7370 14.96489106 14180
COSMOS 2428             
1 31792U 07029A   26063.50827164  .00000067  00000+0  61426-4 0  9995
2 31792  70.9424 214.2185 0008843 282.5735  77.4396 14.12944763963362
SL-16 R/B               
1 31793U 07029B   26063.77582084 -.00000118  00000+0 -36368-4 0  9990
2 31793  70.9756 182.7130 0002384 277.8179 244.0771 14.14833705964672
KORONAS-FOTON           
1 33504U 09003A   26063.57707152  .00016914  00000+0  37964-3 0  9990
2 33504  82.4280 281.1940 0010884 166.9286 193.2246 15.43184144944958
CZ-2C R/B               
1 37731U 11030B   26063.80928642  .00002607  00000+0  33387-3 0  9993
2 37731  97.8537  21.1702 0052874   7.9772  19.4096 14.81199589789371
H-2A R/B                
1 38341U 12025E   26063.84316837  .00005822  00000+0  52701-3 0  9990
2 38341  98.4721  30.5010 0043735 330.3999  29.4744 14.95116047747498
SHIJIAN-16 (SJ-16)      
1 39358U 13057A   26063.86922890  .00002505  00000+0  24736-3 0  9991
2 39358  74.9732 194.2123 0015702 125.2476 235.0184 14.92317441670783
SL-4 R/B                
1 39679U 14021B   26063.23963572  .00023997  00000+0  52583-3 0  9991
2 39679  51.6089   3.8618 0097968  83.1110 278.1008 15.38969611655432
ALOS-2                  
1 39766U 14029A   26063.84932462  .00002175  00000+0  29794-3 0  9990
2 39766  97.9201 162.5171 0001488  95.9487 264.1894 14.79480659636155
YAOGAN-29               
1 41038U 15069A   26063.86900348  .00000065  00000+0  14731-4 0  9992
2 41038  98.0146  92.2850 0002196  44.1428 315.9960 14.82987439555163
ASTRO-H (HITOMI)        
1 41337U 16012A   26063.27969878  .00005308  00000+0  31308-3 0  9994
2 41337  31.0006  31.4569 0010012 277.2839  82.6661 15.09959716551417
